LYNK TOWER 4            
1 55034U 23001AB  26068.67743801  .00009160  00000+0  30014-3 0  9997
2 55034  97.3324 128.5940 0010321 112.3386 247.8950 15.31819885176588
STARLINK-34640          
1 65092U 25167Q   26068.20867250 -.00021157  00000+0 -70455-3 0  9996
2 65092  53.1618  29.0744 0001442  60.4833 299.6311 15.30184140 33407
