[{"OBJECT_NAME":"LYNK TOWER 4","OBJECT_ID":"2023-001AB","EPOCH":"2026-03-09T16:15:30.644928","MEAN_MOTION":15.31819885,"ECCENTRICITY":0.00103213,"INCLINATION":97.3324,"RA_OF_ASC_NODE":128.594,"ARG_OF_PERICENTER":112.3386,"MEAN_ANOMALY":247.895,"EPHEMERIS_TYPE":0,"CLASSIFICATION_TYPE":"U","NORAD_CAT_ID":55034,"ELEMENT_SET_NO":999,"REV_AT_EPOCH":17658,"BSTAR":0.00030013829,"MEAN_MOTION_DOT":9.16e-5,"MEAN_MOTION_DDOT":0},{"OBJECT_NAME":"STARLINK-34640","OBJECT_ID":"2025-167Q","EPOCH":"2026-03-09T05:00:29.304000","MEAN_MOTION":15.3018414,"ECCENTRICITY":0.00014422,"INCLINATION":53.1618,"RA_OF_ASC_NODE":29.0744,"ARG_OF_PERICENTER":60.4833,"MEAN_ANOMALY":299.6311,"EPHEMERIS_TYPE":0,"CLASSIFICATION_TYPE":"U","NORAD_CAT_ID":65092,"ELEMENT_SET_NO":999,"REV_AT_EPOCH":3340,"BSTAR":-0.00070455422,"MEAN_MOTION_DOT":-0.00021157,"MEAN_MOTION_DDOT":0}]
